{"type": "FeatureCollection", "features": [ {"type": "Feature", "properties": {"norad_id": 66653, "name": "2025-274D", "group": "last-30-days", "lat": -62.76832359905662, "lon": 73.13303516809655, "alt_km": 592.678997870772, "timestamp": "2025-12-07T03:52:31.205239+00:00", "meta": {"OBJECT_NAME": "2025-274D", "OBJECT_ID": "2025-274D", "EPOCH": "2025-12-06T12:17:51.211392", "MEAN_MOTION": 14.91858206, "ECCENTRICITY": 0.00112287, "INCLINATION": 97.7389, "RA_OF_ASC_NODE": 267.818, "ARG_OF_PERICENTER": 277.7634, "MEAN_ANOMALY": 82.231, "EPHEMERIS_TYPE": 0, "CLASSIFICATION_TYPE": "U", "NORAD_CAT_ID": 66653, "ELEMENT_SET_NO": 999, "REV_AT_EPOCH": 147, "BSTAR": 0.00036958049, "MEAN_MOTION_DOT": 3.681e-05, "MEAN_MOTION_DDOT": 0}, "tle": {"line1": "1 66653U 25274D   25340.51239828  .00003681  00000+0  36958-3 0  9999", "line2": "2 66653  97.7389 267.8180 0011228 277.7634  82.2310 14.91858206  1475"}}, "geometry": {"type": "Point", "coordinates": [73.13303516809655, -62.76832359905662]}}, {"type": "Feature", "properties": {"norad_id": 66654, "name": "JACK E", "group": "last-30-days", "lat": -68.59864804426105, "lon": 68.15452192818026, "alt_km": 591.5303477519146, "timestamp": "2025-12-07T03:52:31.205266+00:00", "meta": {"OBJECT_NAME": "JACK E", "OBJECT_ID": "2025-274E", "EPOCH": "2025-12-06T12:16:18.064416", "MEAN_MOTION": 14.92029894, "ECCENTRICITY": 0.00118143, "INCLINATION": 97.7393, "RA_OF_ASC_NODE": 267.8198, "ARG_OF_PERICENTER": 279.1697, "MEAN_ANOMALY": 80.8185, "EPHEMERIS_TYPE": 0, "CLASSIFICATION_TYPE": "U", "NORAD_CAT_ID": 66654, "ELEMENT_SET_NO": 999, "REV_AT_EPOCH": 147, "BSTAR": 0.00043186765, "MEAN_MOTION_DOT": 4.331e-05, "MEAN_MOTION_DDOT": 0}, "tle": {"line1": "1 66654U 25274E   25340.51132019  .00004331  00000+0  43187-3 0  9999", "line2": "2 66654  97.7393 267.8198 0011814 279.1697  80.8185 14.92029894  1474"}}, "geometry": {"type": "Point", "coordinates": [68.15452192818026, -68.59864804426105]}}, {"type": "Feature", "properties": {"norad_id": 66655, "name": "2025-274F", "group": "last-30-days", "lat": -74.92129386052761, "lon": 58.17131217559697, "alt_km": 595.7456851146972, "timestamp": "2025-12-07T03:52:31.205277+00:00", "meta": {"OBJECT_NAME": "2025-274F", "OBJECT_ID": "2025-274F", "EPOCH": "2025-12-06T12:14:39.780960", "MEAN_MOTION": 14.92404459, "ECCENTRICITY": 0.00076463, "INCLINATION": 97.7348, "RA_OF_ASC_NODE": 267.8281, "ARG_OF_PERICENTER": 327.0355, "MEAN_ANOMALY": 33.0387, "EPHEMERIS_TYPE": 0, "CLASSIFICATION_TYPE": "U", "NORAD_CAT_ID": 66655, "ELEMENT_SET_NO": 999, "REV_AT_EPOCH": 147, "BSTAR": 0.00032876017, "MEAN_MOTION_DOT": 3.312e-05, "MEAN_MOTION_DDOT": 0}, "tle": {"line1": "1 66655U 25274F   25340.51018265  .00003312  00000+0  32876-3 0  9997", "line2": "2 66655  97.7348 267.8281 0007646 327.0355  33.0387 14.92404459  1478"}}, "geometry": {"type": "Point", "coordinates": [58.17131217559697, -74.92129386052761]}}, {"type": "Feature", "properties": {"norad_id": 66656, "name": "2025-274G", "group": "last-30-days", "lat": -74.73627227789876, "lon": 58.569996684304726, "alt_km": 590.278498763505, "timestamp": "2025-12-07T03:52:31.205292+00:00", "meta": {"OBJECT_NAME": "2025-274G", "OBJECT_ID": "2025-274G", "EPOCH": "2025-12-06T13:51:08.777088", "MEAN_MOTION": 14.92217481, "ECCENTRICITY": 0.00124552, "INCLINATION": 97.7391, "RA_OF_ASC_NODE": 267.8866, "ARG_OF_PERICENTER": 280.6757, "MEAN_ANOMALY": 79.3059, "EPHEMERIS_TYPE": 0, "CLASSIFICATION_TYPE": "U", "NORAD_CAT_ID": 66656, "ELEMENT_SET_NO": 999, "REV_AT_EPOCH": 148, "BSTAR": 0.00049254934, "MEAN_MOTION_DOT": 4.972e-05, "MEAN_MOTION_DDOT": 0}, "tle": {"line1": "1 66656U 25274G   25340.57718492  .00004972  00000+0  49255-3 0  9995", "line2": "2 66656  97.7391 267.8866 0012455 280.6757  79.3059 14.92217481  1487"}}, "geometry": {"type": "Point", "coordinates": [58.569996684304726, -74.73627227789876]}}, {"type": "Feature", "properties": {"norad_id": 66657, "name": "SPIRONE", "group": "last-30-days", "lat": -79.91181313547669, "lon": 38.61408824557863, "alt_km": 591.4813376839056, "timestamp": "2025-12-07T03:52:31.205302+00:00", "meta": {"OBJECT_NAME": "SPIRONE", "OBJECT_ID": "2025-274H", "EPOCH": "2025-12-06T12:12:53.945280", "MEAN_MOTION": 14.92396474, "ECCENTRICITY": 0.00109747, "INCLINATION": 97.7389, "RA_OF_ASC_NODE": 267.8223, "ARG_OF_PERICENTER": 300.015, "MEAN_ANOMALY": 59.998, "EPHEMERIS_TYPE": 0, "CLASSIFICATION_TYPE": "U", "NORAD_CAT_ID": 66657, "ELEMENT_SET_NO": 999, "REV_AT_EPOCH": 147, "BSTAR": 0.0004858557, "MEAN_MOTION_DOT": 4.924e-05, "MEAN_MOTION_DDOT": 0}, "tle": {"line1": "1 66657U 25274H   25340.50895770  .00004924  00000+0  48586-3 0  9997", "line2": "2 66657  97.7389 267.8223 0010974 300.0150  59.9980 14.92396474  1476"}}, "geometry": {"type": "Point", "coordinates": [38.61408824557863, -79.91181313547669]}}, {"type": "Feature", "properties": {"norad_id": 66658, "name": "2025-274J", "group": "last-30-days", "lat": -82.25498372980634, "lon": -2.315061620609688, "alt_km": 590.3399795309097, "timestamp": "2025-12-07T03:52:31.205315+00:00", "meta": {"OBJECT_NAME": "2025-274J", "OBJECT_ID": "2025-274J", "EPOCH": "2025-12-06T12:11:14.224128", "MEAN_MOTION": 14.92570037, "ECCENTRICITY": 0.00115574, "INCLINATION": 97.7391, "RA_OF_ASC_NODE": 267.8234, "ARG_OF_PERICENTER": 302.9889, "MEAN_ANOMALY": 57.0218, "EPHEMERIS_TYPE": 0, "CLASSIFICATION_TYPE": "U", "NORAD_CAT_ID": 66658, "ELEMENT_SET_NO": 999, "REV_AT_EPOCH": 147, "BSTAR": 0.00047136021, "MEAN_MOTION_DOT": 4.797e-05, "MEAN_MOTION_DDOT": 0}, "tle": {"line1": "1 66658U 25274J   25340.50780352  .00004797  00000+0  47136-3 0  9995", "line2": "2 66658  97.7391 267.8234 0011557 302.9889  57.0218 14.92570037  1472"}}, "geometry": {"type": "Point", "coordinates": [-2.315061620609688, -82.25498372980634]}}, {"type": "Feature", "properties": {"norad_id": 66659, "name": "JACK K", "group": "last-30-days", "lat": -79.50921521334627, "lon": -44.271638051033854, "alt_km": 588.9065455912414, "timestamp": "2025-12-07T03:52:31.205325+00:00", "meta": {"OBJECT_NAME": "JACK K", "OBJECT_ID": "2025-274K", "EPOCH": "2025-12-06T12:09:28.530144", "MEAN_MOTION": 14.92755789, "ECCENTRICITY": 0.0012286, "INCLINATION": 97.7393, "RA_OF_ASC_NODE": 267.8254, "ARG_OF_PERICENTER": 304.1059, "MEAN_ANOMALY": 55.8994, "EPHEMERIS_TYPE": 0, "CLASSIFICATION_TYPE": "U", "NORAD_CAT_ID": 66659, "ELEMENT_SET_NO": 999, "REV_AT_EPOCH": 147, "BSTAR": 0.00046618459, "MEAN_MOTION_DOT": 4.767e-05, "MEAN_MOTION_DDOT": 0}, "tle": {"line1": "1 66659U 25274K   25340.50658021  .00004767  00000+0  46618-3 0  9994", "line2": "2 66659  97.7393 267.8254 0012286 304.1059  55.8994 14.92755789  1476"}}, "geometry": {"type": "Point", "coordinates": [-44.271638051033854, -79.50921521334627]}}, {"type": "Feature", "properties": {"norad_id": 66660, "name": "K-HERO", "group": "last-30-days", "lat": -75.14012290038998, "lon": -60.691824168655074, "alt_km": 587.7136394981426, "timestamp": "2025-12-07T03:52:31.205336+00:00", "meta": {"OBJECT_NAME": "K-HERO", "OBJECT_ID": "2025-274L", "EPOCH": "2025-12-06T12:08:03.554016", "MEAN_MOTION": 14.92904179, "ECCENTRICITY": 0.00129328, "INCLINATION": 97.7397, "RA_OF_ASC_NODE": 267.8271, "ARG_OF_PERICENTER": 304.6853, "MEAN_ANOMALY": 55.3147, "EPHEMERIS_TYPE": 0, "CLASSIFICATION_TYPE": "U", "NORAD_CAT_ID": 66660, "ELEMENT_SET_NO": 999, "REV_AT_EPOCH": 147, "BSTAR": 0.00045617475, "MEAN_MOTION_DOT": 4.682e-05, "MEAN_MOTION_DDOT": 0}, "tle": {"line1": "1 66660U 25274L   25340.50559669  .00004682  00000+0  45617-3 0  9998", "line2": "2 66660  97.7397 267.8271 0012932 304.6853  55.3147 14.92904179  1470"}}, "geometry": {"type": "Point", "coordinates": [-60.691824168655074, -75.14012290038998]}}, {"type": "Feature", "properties": {"norad_id": 66661, "name": "SNUGLITE-III", "group": "last-30-days", "lat": -70.01801481093786, "lon": -69.56233592946022, "alt_km": 586.562774444561, "timestamp": "2025-12-07T03:52:31.205347+00:00", "meta": {"OBJECT_NAME": "SNUGLITE-III", "OBJECT_ID": "2025-274M", "EPOCH": "2025-12-06T12:06:36.508608", "MEAN_MOTION": 14.93053395, "ECCENTRICITY": 0.00135673, "INCLINATION": 97.7393, "RA_OF_ASC_NODE": 267.8282, "ARG_OF_PERICENTER": 305.7513, "MEAN_ANOMALY": 54.2444, "EPHEMERIS_TYPE": 0, "CLASSIFICATION_TYPE": "U", "NORAD_CAT_ID": 66661, "ELEMENT_SET_NO": 999, "REV_AT_EPOCH": 147, "BSTAR": 0.00044921114, "MEAN_MOTION_DOT": 4.628e-05, "MEAN_MOTION_DDOT": 0}, "tle": {"line1": "1 66661U 25274M   25340.50458922  .00004628  00000+0  44921-3 0  9996", "line2": "2 66661  97.7393 267.8282 0013567 305.7513  54.2444 14.93053395  1473"}}, "geometry": {"type": "Point", "coordinates": [-69.56233592946022, -70.01801481093786]}}, {"type": "Feature", "properties": {"norad_id": 66662, "name": "2025-274N", "group": "last-30-days", "lat": -67.82118039230309, "lon": -72.0374473389493, "alt_km": 585.9546299489275, "timestamp": "2025-12-07T03:52:31.205359+00:00", "meta": {"OBJECT_NAME": "2025-274N", "OBJECT_ID": "2025-274N", "EPOCH": "2025-12-06T05:39:59.423616", "MEAN_MOTION": 14.93101008, "ECCENTRICITY": 0.00140324, "INCLINATION": 97.7392, "RA_OF_ASC_NODE": 267.565, "ARG_OF_PERICENTER": 305.8521, "MEAN_ANOMALY": 54.1395, "EPHEMERIS_TYPE": 0, "CLASSIFICATION_TYPE": "U", "NORAD_CAT_ID": 66662, "ELEMENT_SET_NO": 999, "REV_AT_EPOCH": 143, "BSTAR": 0.00031672786, "MEAN_MOTION_DOT": 3.25e-05, "MEAN_MOTION_DDOT": 0}, "tle": {"line1": "1 66662U 25274N   25340.23610444  .00003250  00000+0  31673-3 0  9996", "line2": "2 66662  97.7392 267.5650 0014032 305.8521  54.1395 14.93101008  1432"}}, "geometry": {"type": "Point", "coordinates": [-72.0374473389493, -67.82118039230309]}}]}